[{"OBJECT_NAME":"OBJECT L","OBJECT_ID":"2023-085L","EPOCH":"2026-03-09T23:02:21.999840","MEAN_MOTION":15.29079976,"ECCENTRICITY":0.0005428,"INCLINATION":97.486,"RA_OF_ASC_NODE":178.8598,"ARG_OF_PERICENTER":50.8528,"MEAN_ANOMALY":309.3193,"EPHEMERIS_TYPE":0,"CLASSIFICATION_TYPE":"U","NORAD_CAT_ID":57014,"ELEMENT_SET_NO":999,"REV_AT_EPOCH":15144,"BSTAR":0.00063462603,"MEAN_MOTION_DOT":0.00017871,"MEAN_MOTION_DDOT":0},{"OBJECT_NAME":"STARLINK-33955","OBJECT_ID":"2025-095N","EPOCH":"2026-03-08T17:14:22.340832","MEAN_MOTION":15.27596111,"ECCENTRICITY":0.00014572,"INCLINATION":43.0004,"RA_OF_ASC_NODE":181.3218,"ARG_OF_PERICENTER":257.97,"MEAN_ANOMALY":102.0989,"EPHEMERIS_TYPE":0,"CLASSIFICATION_TYPE":"U","NORAD_CAT_ID":63902,"ELEMENT_SET_NO":999,"REV_AT_EPOCH":4763,"BSTAR":0.0015598229,"MEAN_MOTION_DOT":0.00042932,"MEAN_MOTION_DDOT":0}]
